{
  "type": "FeatureCollection",
  "features": [
    {
      "type": "Feature",
      "properties": {
        "norad_id": 46277,
        "name": "NEMO-HD",
        "group": "resource",
        "lat": 23.603272880854508,
        "lon": -125.42312830167805,
        "alt_km": 444.70067424904664,
        "timestamp": "2025-12-18T08:58:43.049407+00:00",
        "meta_object_name": "NEMO-HD",
        "meta_object_id": "2020-061F",
        "meta_epoch": "2025-12-17T22:56:57.283584",
        "meta_mean_motion": 15.4043423,
        "meta_eccentricity": 0.00015486,
        "meta_inclination": 97.2211,
        "meta_ra_of_asc_node": 50.9882,
        "meta_arg_of_pericenter": 52.073,
        "meta_mean_anomaly": 308.0656,
        "meta_ephemeris_type": 0,
        "meta_classification_type": "U",
        "meta_norad_cat_id": 46277,
        "meta_element_set_no": 999,
        "meta_rev_at_epoch": 29404,
        "meta_bstar": 0.00021024885,
        "meta_mean_motion_dot": 8.427e-05,
        "meta_mean_motion_ddot": 0,
        "tle_line1": "1 46277U 20061F   25351.95621856  .00008427  00000+0  21025-3 0  9996",
        "tle_line2": "2 46277  97.2211  50.9882 0001548  52.0730 308.0656 15.40434230294040"
      },
      "geometry": {
        "type": "Point",
        "coordinates": [
          -125.42312830167805,
          23.603272880854508
        ]
      }
    },
    {
      "type": "Feature",
      "properties": {
        "norad_id": 46984,
        "name": "SENTINEL-6A",
        "group": "resource",
        "lat": 19.428962858258384,
        "lon": -38.41833766244444,
        "alt_km": 1338.9126046278225,
        "timestamp": "2025-12-18T08:58:43.049417+00:00",
        "meta_object_name": "SENTINEL-6A",
        "meta_object_id": "2020-086A",
        "meta_epoch": "2025-12-17T20:54:36.077760",
        "meta_mean_motion": 12.80930798,
        "meta_eccentricity": 0.00077102,
        "meta_inclination": 66.0391,
        "meta_ra_of_asc_node": 151.6495,
        "meta_arg_of_pericenter": 269.2543,
        "meta_mean_anomaly": 90.7589,
        "meta_ephemeris_type": 0,
        "meta_classification_type": "U",
        "meta_norad_cat_id": 46984,
        "meta_element_set_no": 999,
        "meta_rev_at_epoch": 23710,
        "meta_bstar": 5.0843884e-05,
        "meta_mean_motion_dot": -4.9e-07,
        "meta_mean_motion_ddot": 0,
        "tle_line1": "1 46984U 20086A   25351.87125090 -.00000049  00000+0  50844-4 0  9993",
        "tle_line2": "2 46984  66.0391 151.6495 0007710 269.2543  90.7589 12.80930798237103"
      },
      "geometry": {
        "type": "Point",
        "coordinates": [
          -38.41833766244444,
          19.428962858258384
        ]
      }
    },
    {
      "type": "Feature",
      "properties": {
        "norad_id": 48079,
        "name": "GAOFEN-12 02",
        "group": "resource",
        "lat": 50.56422519988006,
        "lon": 176.18058144717293,
        "alt_km": 620.5916576664595,
        "timestamp": "2025-12-18T08:58:43.049428+00:00",
        "meta_object_name": "GAOFEN-12 02",
        "meta_object_id": "2021-026A",
        "meta_epoch": "2025-12-17T22:40:06.928896",
        "meta_mean_motion": 14.806815,
        "meta_eccentricity": 0.00035993,
        "meta_inclination": 97.9853,
        "meta_ra_of_asc_node": 345.9259,
        "meta_arg_of_pericenter": 90.7271,
        "meta_mean_anomaly": 269.4353,
        "meta_ephemeris_type": 0,
        "meta_classification_type": "U",
        "meta_norad_cat_id": 48079,
        "meta_element_set_no": 999,
        "meta_rev_at_epoch": 25494,
        "meta_bstar": 6.3472256e-05,
        "meta_mean_motion_dot": 4.35e-06,
        "meta_mean_motion_ddot": 0,
        "tle_line1": "1 48079U 21026A   25351.94452464  .00000435  00000+0  63472-4 0  9990",
        "tle_line2": "2 48079  97.9853 345.9259 0003599  90.7271 269.4353 14.80681500254949"
      },
      "geometry": {
        "type": "Point",
        "coordinates": [
          176.18058144717293,
          50.56422519988006
        ]
      }
    },
    {
      "type": "Feature",
      "properties": {
        "norad_id": 48268,
        "name": "PLEIADES NEO 3",
        "group": "resource",
        "lat": -35.44572773188687,
        "lon": -120.93442699319476,
        "alt_km": 630.9196036796529,
        "timestamp": "2025-12-18T08:58:43.049438+00:00",
        "meta_object_name": "PLEIADES NEO 3",
        "meta_object_id": "2021-034A",
        "meta_epoch": "2025-12-17T22:17:00.132864",
        "meta_mean_motion": 14.81674946,
        "meta_eccentricity": 0.00013386,
        "meta_inclination": 97.8948,
        "meta_ra_of_asc_node": 64.2953,
        "meta_arg_of_pericenter": 89.5493,
        "meta_mean_anomaly": 270.5873,
        "meta_ephemeris_type": 0,
        "meta_classification_type": "U",
        "meta_norad_cat_id": 48268,
        "meta_element_set_no": 999,
        "meta_rev_at_epoch": 25081,
        "meta_bstar": 0.00012024331,
        "meta_mean_motion_dot": 8.94e-06,
        "meta_mean_motion_ddot": 0,
        "tle_line1": "1 48268U 21034A   25351.92847376  .00000894  00000+0  12024-3 0  9992",
        "tle_line2": "2 48268  97.8948  64.2953 0001338  89.5493 270.5873 14.81674946250815"
      },
      "geometry": {
        "type": "Point",
        "coordinates": [
          -120.93442699319476,
          -35.44572773188687
        ]
      }
    },
    {
      "type": "Feature",
      "properties": {
        "norad_id": 49070,
        "name": "PLEIADES NEO 4",
        "group": "resource",
        "lat": 35.27887868714554,
        "lon": 59.09655142673417,
        "alt_km": 621.2273022591835,
        "timestamp": "2025-12-18T08:58:43.049448+00:00",
        "meta_object_name": "PLEIADES NEO 4",
        "meta_object_id": "2021-073E",
        "meta_epoch": "2025-12-17T23:05:36.623616",
        "meta_mean_motion": 14.81673153,
        "meta_eccentricity": 0.00012044,
        "meta_inclination": 97.895,
        "meta_ra_of_asc_node": 64.3247,
        "meta_arg_of_pericenter": 92.7259,
        "meta_mean_anomaly": 267.4091,
        "meta_ephemeris_type": 0,
        "meta_classification_type": "U",
        "meta_norad_cat_id": 49070,
        "meta_element_set_no": 999,
        "meta_rev_at_epoch": 23453,
        "meta_bstar": 1.0665849e-05,
        "meta_mean_motion_dot": 3.2e-07,
        "meta_mean_motion_ddot": 0,
        "tle_line1": "1 49070U 21073E   25351.96222944  .00000032  00000+0  10666-4 0  9994",
        "tle_line2": "2 49070  97.8950  64.3247 0001204  92.7259 267.4091 14.81673153234532"
      },
      "geometry": {
        "type": "Point",
        "coordinates": [
          59.09655142673417,
          35.27887868714554
        ]
      }
    },
    {
      "type": "Feature",
      "properties": {
        "norad_id": 49260,
        "name": "LANDSAT 9",
        "group": "resource",
        "lat": -80.45177236965202,
        "lon": 119.51945350090327,
        "alt_km": 710.6724294802952,
        "timestamp": "2025-12-18T08:58:43.049459+00:00",
        "meta_object_name": "LANDSAT 9",
        "meta_object_id": "2021-088A",
        "meta_epoch": "2025-12-17T18:32:10.061088",
        "meta_mean_motion": 14.5710312,
        "meta_eccentricity": 0.00011204,
        "meta_inclination": 98.209,
        "meta_ra_of_asc_node": 59.8104,
        "meta_arg_of_pericenter": 90.3658,
        "meta_mean_anomaly": 269.7669,
        "meta_ephemeris_type": 0,
        "meta_classification_type": "U",
        "meta_norad_cat_id": 49260,
        "meta_element_set_no": 999,
        "meta_rev_at_epoch": 22458,
        "meta_bstar": 8.9741562e-05,
        "meta_mean_motion_dot": 3.59e-06,
        "meta_mean_motion_ddot": 0,
        "tle_line1": "1 49260U 21088A   25351.77233867  .00000359  00000+0  89742-4 0  9999",
        "tle_line2": "2 49260  98.2090  59.8104 0001120  90.3658 269.7669 14.57103120224583"
      },
      "geometry": {
        "type": "Point",
        "coordinates": [
          119.51945350090327,
          -80.45177236965202
        ]
      }
    },
    {
      "type": "Feature",
      "properties": {
        "norad_id": 51444,
        "name": "CSG-2",
        "group": "resource",
        "lat": 75.79621994880289,
        "lon": 140.43647388809904,
        "alt_km": 614.32833138767,
        "timestamp": "2025-12-18T08:58:43.049470+00:00",
        "meta_object_name": "CSG-2",
        "meta_object_id": "2022-008A",
        "meta_epoch": "2025-12-17T22:54:21.144096",
        "meta_mean_motion": 14.82150918,
        "meta_eccentricity": 0.00014811,
        "meta_inclination": 97.8801,
        "meta_ra_of_asc_node": 173.1983,
        "meta_arg_of_pericenter": 84.4753,
        "meta_mean_anomaly": 275.6629,
        "meta_ephemeris_type": 0,
        "meta_classification_type": "U",
        "meta_norad_cat_id": 51444,
        "meta_element_set_no": 999,
        "meta_rev_at_epoch": 20974,
        "meta_bstar": 9.2846353e-05,
        "meta_mean_motion_dot": 6.87e-06,
        "meta_mean_motion_ddot": 0,
        "tle_line1": "1 51444U 22008A   25351.95441139  .00000687  00000+0  92846-4 0  9995",
        "tle_line2": "2 51444  97.8801 173.1983 0001481  84.4753 275.6629 14.82150918209748"
      },
      "geometry": {
        "type": "Point",
        "coordinates": [
          140.43647388809904,
          75.79621994880289
        ]
      }
    }
  ]
}